0 COSMOS 2461 (GLONASS)
1 36401U 10007B   13281.76867436  .00000067  00000-0  10000-3 0   284
2 36401 064.8897 110.3405 0007376 092.0582 233.2370 02.13102710 28053
0 COSMOS 2461 (GLONASS)
1 36401U 10007B   13282.87911362  .00000068  00000-0  10000-3 0   297
2 36401 064.8897 110.3031 0007378 092.1698 005.0187 02.13102713 28086
0 COSMOS 2461 (GLONASS)
1 36401U 10007B   13284.15910090  .00000074  00000-0  10000-3 0   306
2 36401 064.8901 110.2600 0007398 092.5545 266.5993 02.13102719 28108
0 COSMOS 2461 (GLONASS)
1 36401U 10007B   13286.30069884  .00000087  00000-0  10000-3 0   327
2 36401 064.8907 110.1877 0007415 092.5146 109.6028 02.13102706 28153
0 COSMOS 2461 (GLONASS)
1 36401U 10007B   13287.48290851  .00000089  00000-0  10000-3 0   330
2 36401 064.8914 110.1477 0007429 092.6047 296.4652 02.13102702 28180
0 COSMOS 2461 (GLONASS)
1 36401U 10007B   13288.90195419  .00000083  00000-0  10000-3 0   347
2 36401 064.8919 110.0998 0007452 092.7624 304.9528 02.13102697 28214
0 COSMOS 2461 (GLONASS)
1 36401U 10007B   13290.25857396  .00000069  00000-0  10000-3 0   352
2 36401 064.8924 110.0541 0007467 093.0828 265.3863 02.13102684 28230
0 COSMOS 2461 (GLONASS)
1 36401U 10007B   13291.40966877  .00000055  00000-0  10000-3 0   361
2 36401 064.8928 110.0152 0007473 093.2898 068.2614 02.13102677 28267
0 COSMOS 2461 (GLONASS)
1 36401U 10007B   13292.62661916  .00000041  00000-0  10000-3 0   378
2 36401 064.8931 109.9741 0007481 093.3507 281.8043 02.13102657 28299
0 COSMOS 2461 (GLONASS)
1 36401U 10007B   13293.81052406  .00000034  00000-0  10000-3 0   381
2 36401 064.8934 109.9340 0007485 093.3954 110.0124 02.13102644 28319
0 COSMOS 2461 (GLONASS)
1 36401U 10007B   13295.24034532  .00000035  00000-0  10000-3 0   392
2 36401 064.8933 109.8855 0007509 093.6085 126.7100 02.13102601 28347
